{
  "type": "FeatureCollection",
  "features": [
    {
      "type": "Feature",
      "properties": {
        "norad_id": 66509,
        "name": "STARLINK-35598",
        "group": "last-30-days",
        "lat": 41.0931149815817,
        "lon": -148.7365280272834,
        "alt_km": 409.4772125459376,
        "timestamp": "2025-12-09T20:37:08.055568+00:00",
        "meta_object_name": "STARLINK-35598",
        "meta_object_id": "2025-263AA",
        "meta_epoch": "2025-12-09T14:00:01.999872",
        "meta_mean_motion": 15.5058363,
        "meta_eccentricity": 0.00013481,
        "meta_inclination": 43.0005,
        "meta_ra_of_asc_node": 143.5007,
        "meta_arg_of_pericenter": 262.3221,
        "meta_mean_anomaly": 71.1277,
        "meta_ephemeris_type": 0,
        "meta_classification_type": "U",
        "meta_norad_cat_id": 66509,
        "meta_element_set_no": 999,
        "meta_rev_at_epoch": 512,
        "meta_bstar": -0.00097674901,
        "meta_mean_motion_dot": -0.00057234,
        "meta_mean_motion_ddot": 0,
        "tle_line1": "1 66509U 25263AA  25343.58335648 -.00057234  00000+0 -97675-3 0  9992",
        "tle_line2": "2 66509  43.0005 143.5007 0001348 262.3221  71.1277 15.50583630  5123"
      },
      "geometry": {
        "type": "Point",
        "coordinates": [
          -148.7365280272834,
          41.0931149815817
        ]
      }
    },
    {
      "type": "Feature",
      "properties": {
        "norad_id": 66510,
        "name": "STARLINK-35600",
        "group": "last-30-days",
        "lat": 39.4799042913494,
        "lon": -155.9723081700344,
        "alt_km": 409.75841870610566,
        "timestamp": "2025-12-09T20:37:08.055579+00:00",
        "meta_object_name": "STARLINK-35600",
        "meta_object_id": "2025-263AB",
        "meta_epoch": "2025-12-09T14:00:01.999872",
        "meta_mean_motion": 15.50593726,
        "meta_eccentricity": 0.00014014,
        "meta_inclination": 43.0004,
        "meta_ra_of_asc_node": 143.5147,
        "meta_arg_of_pericenter": 261.3359,
        "meta_mean_anomaly": 66.3583,
        "meta_ephemeris_type": 0,
        "meta_classification_type": "U",
        "meta_norad_cat_id": 66510,
        "meta_element_set_no": 999,
        "meta_rev_at_epoch": 512,
        "meta_bstar": -0.0014077064,
        "meta_mean_motion_dot": -0.00082107,
        "meta_mean_motion_ddot": 0,
        "tle_line1": "1 66510U 25263AB  25343.58335648 -.00082107  00000+0 -14077-2 0  9995",
        "tle_line2": "2 66510  43.0004 143.5147 0001401 261.3359  66.3583 15.50593726  5123"
      },
      "geometry": {
        "type": "Point",
        "coordinates": [
          -155.9723081700344,
          39.4799042913494
        ]
      }
    },
    {
      "type": "Feature",
      "properties": {
        "norad_id": 66511,
        "name": "STARLINK-35444",
        "group": "last-30-days",
        "lat": 40.606209814087336,
        "lon": -151.18496159281048,
        "alt_km": 409.56394875239585,
        "timestamp": "2025-12-09T20:37:08.055588+00:00",
        "meta_object_name": "STARLINK-35444",
        "meta_object_id": "2025-263AC",
        "meta_epoch": "2025-12-09T14:00:01.999872",
        "meta_mean_motion": 15.50586444,
        "meta_eccentricity": 0.00013923,
        "meta_inclination": 43.0006,
        "meta_ra_of_asc_node": 143.5065,
        "meta_arg_of_pericenter": 266.4547,
        "meta_mean_anomaly": 65.076,
        "meta_ephemeris_type": 0,
        "meta_classification_type": "U",
        "meta_norad_cat_id": 66511,
        "meta_element_set_no": 999,
        "meta_rev_at_epoch": 512,
        "meta_bstar": -0.0011022574,
        "meta_mean_motion_dot": -0.00064492,
        "meta_mean_motion_ddot": 0,
        "tle_line1": "1 66511U 25263AC  25343.58335648 -.00064492  00000+0 -11023-2 0  9991",
        "tle_line2": "2 66511  43.0006 143.5065 0001392 266.4547  65.0760 15.50586444  5121"
      },
      "geometry": {
        "type": "Point",
        "coordinates": [
          -151.18496159281048,
          40.606209814087336
        ]
      }
    },
    {
      "type": "Feature",
      "properties": {
        "norad_id": 66512,
        "name": "STARLINK-35366",
        "group": "last-30-days",
        "lat": 41.52629961780473,
        "lon": -146.2580677112052,
        "alt_km": 409.4270563557857,
        "timestamp": "2025-12-09T20:37:08.055603+00:00",
        "meta_object_name": "STARLINK-35366",
        "meta_object_id": "2025-263AD",
        "meta_epoch": "2025-12-09T14:00:01.999872",
        "meta_mean_motion": 15.5057525,
        "meta_eccentricity": 0.0001387,
        "meta_inclination": 43.0005,
        "meta_ra_of_asc_node": 143.4964,
        "meta_arg_of_pericenter": 266.2179,
        "meta_mean_anomaly": 69.1468,
        "meta_ephemeris_type": 0,
        "meta_classification_type": "U",
        "meta_norad_cat_id": 66512,
        "meta_element_set_no": 999,
        "meta_rev_at_epoch": 512,
        "meta_bstar": -0.00068218616,
        "meta_mean_motion_dot": -0.00040152,
        "meta_mean_motion_ddot": 0,
        "tle_line1": "1 66512U 25263AD  25343.58335648 -.00040152  00000+0 -68219-3 0  9999",
        "tle_line2": "2 66512  43.0005 143.4964 0001387 266.2179  69.1468 15.50575250  5124"
      },
      "geometry": {
        "type": "Point",
        "coordinates": [
          -146.2580677112052,
          41.52629961780473
        ]
      }
    },
    {
      "type": "Feature",
      "properties": {
        "norad_id": 66513,
        "name": "STARLINK-35692",
        "group": "last-30-days",
        "lat": 40.06640777783307,
        "lon": -153.60414672818104,
        "alt_km": 409.6953189902342,
        "timestamp": "2025-12-09T20:37:08.055613+00:00",
        "meta_object_name": "STARLINK-35692",
        "meta_object_id": "2025-263AE",
        "meta_epoch": "2025-12-09T14:00:01.999872",
        "meta_mean_motion": 15.50586333,
        "meta_eccentricity": 0.00014313,
        "meta_inclination": 43.0004,
        "meta_ra_of_asc_node": 143.5103,
        "meta_arg_of_pericenter": 261.2045,
        "meta_mean_anomaly": 68.4069,
        "meta_ephemeris_type": 0,
        "meta_classification_type": "U",
        "meta_norad_cat_id": 66513,
        "meta_element_set_no": 999,
        "meta_rev_at_epoch": 512,
        "meta_bstar": -0.00118705,
        "meta_mean_motion_dot": -0.00069384,
        "meta_mean_motion_ddot": 0,
        "tle_line1": "1 66513U 25263AE  25343.58335648 -.00069384  00000+0 -11871-2 0  9999",
        "tle_line2": "2 66513  43.0004 143.5103 0001431 261.2045  68.4069 15.50586333  5120"
      },
      "geometry": {
        "type": "Point",
        "coordinates": [
          -153.60414672818104,
          40.06640777783307
        ]
      }
    },
    {
      "type": "Feature",
      "properties": {
        "norad_id": 66514,
        "name": "SENTINEL-6B",
        "group": "last-30-days",
        "lat": 43.49954512760279,
        "lon": -36.53696564922524,
        "alt_km": 1332.5075589848175,
        "timestamp": "2025-12-09T20:37:08.055624+00:00",
        "meta_object_name": "SENTINEL-6B",
        "meta_object_id": "2025-264A",
        "meta_epoch": "2025-12-08T23:22:28.384896",
        "meta_mean_motion": 12.84031992,
        "meta_eccentricity": 0.00210406,
        "meta_inclination": 66.0385,
        "meta_ra_of_asc_node": 170.2707,
        "meta_arg_of_pericenter": 268.23,
        "meta_mean_anomaly": 91.6307,
        "meta_ephemeris_type": 0,
        "meta_classification_type": "U",
        "meta_norad_cat_id": 66514,
        "meta_element_set_no": 999,
        "meta_rev_at_epoch": 280,
        "meta_bstar": 0.000106025,
        "meta_mean_motion_dot": -3.6e-07,
        "meta_mean_motion_ddot": 0,
        "tle_line1": "1 66514U 25264A   25342.97393964 -.00000036  00000+0  10602-3 0  9998",
        "tle_line2": "2 66514  66.0385 170.2707 0021040 268.2300  91.6307 12.84031992  2809"
      },
      "geometry": {
        "type": "Point",
        "coordinates": [
          -36.53696564922524,
          43.49954512760279
        ]
      }
    },
    {
      "type": "Feature",
      "properties": {
        "norad_id": 66516,
        "name": "STARLINK-35924",
        "group": "last-30-days",
        "lat": -35.206815433011734,
        "lon": -59.911840712684864,
        "alt_km": 416.3626033920864,
        "timestamp": "2025-12-09T20:37:08.055636+00:00",
        "meta_object_name": "STARLINK-35924",
        "meta_object_id": "2025-265A",
        "meta_epoch": "2025-12-09T14:00:01.999872",
        "meta_mean_motion": 15.51906227,
        "meta_eccentricity": 0.00015073,
        "meta_inclination": 43.0002,
        "meta_ra_of_asc_node": 72.4855,
        "meta_arg_of_pericenter": 286.3508,
        "meta_mean_anomaly": 209.3659,
        "meta_ephemeris_type": 0,
        "meta_classification_type": "U",
        "meta_norad_cat_id": 66516,
        "meta_element_set_no": 999,
        "meta_rev_at_epoch": 446,
        "meta_bstar": -0.030912371,
        "meta_mean_motion_dot": -0.01699673,
        "meta_mean_motion_ddot": 0,
        "tle_line1": "1 66516U 25265A   25343.58335648 -.01699673  00000+0 -30912-1 0  9991",
        "tle_line2": "2 66516  43.0002  72.4855 0001507 286.3508 209.3659 15.51906227  4467"
      },
      "geometry": {
        "type": "Point",
        "coordinates": [
          -59.911840712684864,
          -35.206815433011734
        ]
      }
    }
  ]
}